CCSDS_OMM_VERS = 2.0
CREATION_DATE  = 
ORIGINATOR     = 

OBJECT_NAME    = H-2A R/B
OBJECT_ID      = 2012-025E
CENTER_NAME    = EARTH
REF_FRAME      = TEME
TIME_SYSTEM    = UTC
MEAN_ELEMENT_THEORY = SGP/SGP4

EPOCH          = 2025-10-27T05:34:40.700928
MEAN_MOTION    = 14.93945683
ECCENTRICITY   = .00466776
INCLINATION    = 98.4526
RA_OF_ASC_NODE = 251.9149
ARG_OF_PERICENTER = 30.9600
MEAN_ANOMALY   = 329.4354

EPHEMERIS_TYPE = 0
CLASSIFICATION_TYPE = U
NORAD_CAT_ID   = 38341
ELEMENT_SET_NO = 999
REV_AT_EPOCH   = 72828
BSTAR          = .46028864E-3
MEAN_MOTION_DOT = .4939E-4
MEAN_MOTION_DDOT = 0

CCSDS_OMM_VERS = 2.0
CREATION_DATE  = 
ORIGINATOR     = 

OBJECT_NAME    = SHIJIAN-16 (SJ-16)
OBJECT_ID      = 2013-057A
CENTER_NAME    = EARTH
REF_FRAME      = TEME
TIME_SYSTEM    = UTC
MEAN_ELEMENT_THEORY = SGP/SGP4

EPOCH          = 2025-10-27T07:56:21.558048
MEAN_MOTION    = 14.91731688
ECCENTRICITY   = .00159773
INCLINATION    = 74.9721
RA_OF_ASC_NODE = 77.4459
ARG_OF_PERICENTER = 75.2496
MEAN_ANOMALY   = 285.0461

EPHEMERIS_TYPE = 0
CLASSIFICATION_TYPE = U
NORAD_CAT_ID   = 39358
ELEMENT_SET_NO = 999
REV_AT_EPOCH   = 65161
BSTAR          = .19000525E-3
MEAN_MOTION_DOT = .1889E-4
MEAN_MOTION_DDOT = 0

CCSDS_OMM_VERS = 2.0
CREATION_DATE  = 
ORIGINATOR     = 

OBJECT_NAME    = SL-4 R/B
OBJECT_ID      = 2014-021B
CENTER_NAME    = EARTH
REF_FRAME      = TEME
TIME_SYSTEM    = UTC
MEAN_ELEMENT_THEORY = SGP/SGP4

EPOCH          = 2025-10-27T06:51:36.623520
MEAN_MOTION    = 15.34868622
ECCENTRICITY   = .01054655
INCLINATION    = 51.6082
RA_OF_ASC_NODE = 266.0636
ARG_OF_PERICENTER = 338.7786
MEAN_ANOMALY   = 20.8838

EPHEMERIS_TYPE = 0
CLASSIFICATION_TYPE = U
NORAD_CAT_ID   = 39679
ELEMENT_SET_NO = 999
REV_AT_EPOCH   = 63575
BSTAR          = .4465661E-3
MEAN_MOTION_DOT = .1802E-3
MEAN_MOTION_DDOT = 0

CCSDS_OMM_VERS = 2.0
CREATION_DATE  = 
ORIGINATOR     = 

OBJECT_NAME    = ALOS-2
OBJECT_ID      = 2014-029A
CENTER_NAME    = EARTH
REF_FRAME      = TEME
TIME_SYSTEM    = UTC
MEAN_ELEMENT_THEORY = SGP/SGP4

EPOCH          = 2025-10-27T06:41:58.483968
MEAN_MOTION    = 14.79438174
ECCENTRICITY   = .00011214
INCLINATION    = 97.9231
RA_OF_ASC_NODE = 35.7865
ARG_OF_PERICENTER = 96.9778
MEAN_ANOMALY   = 263.1562

EPHEMERIS_TYPE = 0
CLASSIFICATION_TYPE = U
NORAD_CAT_ID   = 39766
ELEMENT_SET_NO = 999
REV_AT_EPOCH   = 61714
BSTAR          = .22712336E-3
MEAN_MOTION_DOT = .1644E-4
MEAN_MOTION_DDOT = 0

CCSDS_OMM_VERS = 2.0
CREATION_DATE  = 
ORIGINATOR     = 

OBJECT_NAME    = YAOGAN-29
OBJECT_ID      = 2015-069A
CENTER_NAME    = EARTH
REF_FRAME      = TEME
TIME_SYSTEM    = UTC
MEAN_ELEMENT_THEORY = SGP/SGP4

EPOCH          = 2025-10-27T07:50:15.019872
MEAN_MOTION    = 14.82805383
ECCENTRICITY   = .00027991
INCLINATION    = 98.0271
RA_OF_ASC_NODE = 323.3372
ARG_OF_PERICENTER = 75.9821
MEAN_ANOMALY   = 284.1703

EPHEMERIS_TYPE = 0
CLASSIFICATION_TYPE = U
NORAD_CAT_ID   = 41038
ELEMENT_SET_NO = 999
REV_AT_EPOCH   = 53611
BSTAR          = .97717879E-4
MEAN_MOTION_DOT = .736E-5
MEAN_MOTION_DDOT = 0

CCSDS_OMM_VERS = 2.0
CREATION_DATE  = 
ORIGINATOR     = 

OBJECT_NAME    = ASTRO-H (HITOMI)
OBJECT_ID      = 2016-012A
CENTER_NAME    = EARTH
REF_FRAME      = TEME
TIME_SYSTEM    = UTC
MEAN_ELEMENT_THEORY = SGP/SGP4

EPOCH          = 2025-10-27T06:13:40.476864
MEAN_MOTION    = 15.08930923
ECCENTRICITY   = .00099024
INCLINATION    = 30.9978
RA_OF_ASC_NODE = 136.9183
ARG_OF_PERICENTER = 69.9816
MEAN_ANOMALY   = 290.1888

EPHEMERIS_TYPE = 0
CLASSIFICATION_TYPE = U
NORAD_CAT_ID   = 41337
ELEMENT_SET_NO = 999
REV_AT_EPOCH   = 53205
BSTAR          = .25718657E-3
MEAN_MOTION_DOT = .4255E-4
MEAN_MOTION_DDOT = 0

CCSDS_OMM_VERS = 2.0
CREATION_DATE  = 
ORIGINATOR     = 

OBJECT_NAME    = HXMT (HUIYAN)
OBJECT_ID      = 2017-034A
CENTER_NAME    = EARTH
REF_FRAME      = TEME
TIME_SYSTEM    = UTC
MEAN_ELEMENT_THEORY = SGP/SGP4

EPOCH          = 2025-10-27T08:06:02.422656
MEAN_MOTION    = 15.15479609
ECCENTRICITY   = .00318827
INCLINATION    = 43.0152
RA_OF_ASC_NODE = 36.9822
ARG_OF_PERICENTER = 113.2955
MEAN_ANOMALY   = 247.1253

EPHEMERIS_TYPE = 0
CLASSIFICATION_TYPE = U
NORAD_CAT_ID   = 42758
ELEMENT_SET_NO = 999
REV_AT_EPOCH   = 46229
BSTAR          = .40504168E-3
MEAN_MOTION_DOT = .7672E-4
MEAN_MOTION_DDOT = 0

CCSDS_OMM_VERS = 2.0
CREATION_DATE  = 
ORIGINATOR     = 

OBJECT_NAME    = CZ-2C R/B
OBJECT_ID      = 2018-054D
CENTER_NAME    = EARTH
REF_FRAME      = TEME
TIME_SYSTEM    = UTC
MEAN_ELEMENT_THEORY = SGP/SGP4

EPOCH          = 2025-10-26T21:43:07.697280
MEAN_MOTION    = 15.64453248
ECCENTRICITY   = .0026317
INCLINATION    = 35.1345
RA_OF_ASC_NODE = 136.1035
ARG_OF_PERICENTER = 49.4704
MEAN_ANOMALY   = 310.8313

EPHEMERIS_TYPE = 0
CLASSIFICATION_TYPE = U
NORAD_CAT_ID   = 43521
ELEMENT_SET_NO = 999
REV_AT_EPOCH   = 40769
BSTAR          = .69394E-3
MEAN_MOTION_DOT = .70831E-3
MEAN_MOTION_DDOT = 0

CCSDS_OMM_VERS = 2.0
CREATION_DATE  = 
ORIGINATOR     = 

OBJECT_NAME    = SAOCOM 1A
OBJECT_ID      = 2018-076A
CENTER_NAME    = EARTH
REF_FRAME      = TEME
TIME_SYSTEM    = UTC
MEAN_ELEMENT_THEORY = SGP/SGP4

EPOCH          = 2025-10-27T07:00:42.750144
MEAN_MOTION    = 14.82167835
ECCENTRICITY   = .00014328
INCLINATION    = 97.8878
RA_OF_ASC_NODE = 125.3852
ARG_OF_PERICENTER = 85.8416
MEAN_ANOMALY   = 274.2961

EPHEMERIS_TYPE = 0
CLASSIFICATION_TYPE = U
NORAD_CAT_ID   = 43641
ELEMENT_SET_NO = 999
REV_AT_EPOCH   = 38160
BSTAR          = .10268725E-3
MEAN_MOTION_DOT = .766E-5
MEAN_MOTION_DDOT = 0

CCSDS_OMM_VERS = 2.0
CREATION_DATE  = 
ORIGINATOR     = 

OBJECT_NAME    = H-2A R/B
OBJECT_ID      = 2018-084L
CENTER_NAME    = EARTH
REF_FRAME      = TEME
TIME_SYSTEM    = UTC
MEAN_ELEMENT_THEORY = SGP/SGP4

EPOCH          = 2025-10-27T06:01:53.869152
MEAN_MOTION    = 15.35112935
ECCENTRICITY   = .00294048
INCLINATION    = 98.8821
RA_OF_ASC_NODE = 124.7812
ARG_OF_PERICENTER = 123.8404
MEAN_ANOMALY   = 236.5639

EPHEMERIS_TYPE = 0
CLASSIFICATION_TYPE = U
NORAD_CAT_ID   = 43682
ELEMENT_SET_NO = 999
REV_AT_EPOCH   = 38526
BSTAR          = .5878147E-3
MEAN_MOTION_DOT = .2024E-3
MEAN_MOTION_DDOT = 0

CCSDS_OMM_VERS = 2.0
CREATION_DATE  = 
ORIGINATOR     = 

OBJECT_NAME    = SAOCOM 1B
OBJECT_ID      = 2020-059A
CENTER_NAME    = EARTH
REF_FRAME      = TEME
TIME_SYSTEM    = UTC
MEAN_ELEMENT_THEORY = SGP/SGP4

EPOCH          = 2025-10-27T07:45:45.400032
MEAN_MOTION    = 14.82159076
ECCENTRICITY   = .00013639
INCLINATION    = 97.8866
RA_OF_ASC_NODE = 124.5193
ARG_OF_PERICENTER = 88.3822
MEAN_ANOMALY   = 271.7548

EPHEMERIS_TYPE = 0
CLASSIFICATION_TYPE = U
NORAD_CAT_ID   = 46265
ELEMENT_SET_NO = 999
REV_AT_EPOCH   = 27899
BSTAR          = .10092719E-3
MEAN_MOTION_DOT = .751E-5
MEAN_MOTION_DDOT = 0

CCSDS_OMM_VERS = 2.0
CREATION_DATE  = 
ORIGINATOR     = 

OBJECT_NAME    = CSS (TIANHE)
OBJECT_ID      = 2021-035A
CENTER_NAME    = EARTH
REF_FRAME      = TEME
TIME_SYSTEM    = UTC
MEAN_ELEMENT_THEORY = SGP/SGP4

EPOCH          = 2025-10-27T06:54:00.559872
MEAN_MOTION    = 15.60754660
ECCENTRICITY   = .00109002
INCLINATION    = 41.4668
RA_OF_ASC_NODE = 298.8842
ARG_OF_PERICENTER = 291.5284
MEAN_ANOMALY   = 68.4393

EPHEMERIS_TYPE = 0
CLASSIFICATION_TYPE = U
NORAD_CAT_ID   = 48274
ELEMENT_SET_NO = 999
REV_AT_EPOCH   = 25677
BSTAR          = .40191971E-3
MEAN_MOTION_DOT = .34313E-3
MEAN_MOTION_DDOT = 0

