H-2A R/B                
1 38341U 12025E   25300.23241552  .00004939  00000+0  46029-3 0  9991
2 38341  98.4526 251.9149 0046677  30.9600 329.4354 14.93945683728283
SHIJIAN-16 (SJ-16)      
1 39358U 13057A   25300.33080507  .00001889  00000+0  19001-3 0  9999
2 39358  74.9721  77.4459 0015977  75.2496 285.0461 14.91731688651611
SL-4 R/B                
1 39679U 14021B   25300.28584055  .00018020  00000+0  44657-3 0  9998
2 39679  51.6082 266.0636 0105465 338.7786  20.8838 15.34868622635750
ALOS-2                  
1 39766U 14029A   25300.27914912  .00001644  00000+0  22712-3 0  9993
2 39766  97.9231  35.7865 0001121  96.9778 263.1562 14.79438174617141
YAOGAN-29               
1 41038U 15069A   25300.32656273  .00000736  00000+0  97718-4 0  9992
2 41038  98.0271 323.3372 0002799  75.9821 284.1703 14.82805383536110
ASTRO-H (HITOMI)        
1 41337U 16012A   25300.25949626  .00004255  00000+0  25719-3 0  9993
2 41337  30.9978 136.9183 0009902  69.9816 290.1888 15.08930923532057
HXMT (HUIYAN)           
1 42758U 17034A   25300.33752804  .00007672  00000+0  40504-3 0  9990
2 42758  43.0152  36.9822 0031882 113.2955 247.1253 15.15479609462295
CZ-2C R/B               
1 43521U 18054D   25299.90495020  .00070831  00000+0  69394-3 0  9991
2 43521  35.1345 136.1035 0026317  49.4704 310.8313 15.64453248407691
SAOCOM 1A               
1 43641U 18076A   25300.29216146  .00000766  00000+0  10269-3 0  9990
2 43641  97.8878 125.3852 0001432  85.8416 274.2961 14.82167835381609
H-2A R/B                
1 43682U 18084L   25300.25131793  .00020240  00000+0  58781-3 0  9994
2 43682  98.8821 124.7812 0029404 123.8404 236.5639 15.35112935385260
SAOCOM 1B               
1 46265U 20059A   25300.32344213  .00000751  00000+0  10093-3 0  9999
2 46265  97.8866 124.5193 0001363  88.3822 271.7548 14.82159076278990
CSS (TIANHE)            
1 48274U 21035A   25300.28750648  .00034313  00000+0  40192-3 0  9998
2 48274  41.4668 298.8842 0010900 291.5284  68.4393 15.60754660256778
